STARLINK-36708          
1 67713U 26025W   26046.25002315 -.01001461  35313-3 -13838-2 0  9993
2 67713  97.2772 156.5271 0001487  54.5832 346.9725 16.06109803  2309
STARLINK-36702          
1 67714U 26025X   26046.25002315 -.01014946  36117-3 -14185-2 0  9995
2 67714  97.2772 156.5260 0001461  50.3498 348.5066 16.05926264  2035
STARLINK-36718          
1 67715U 26025Y   26046.25002315 -.00972865  33649-3 -13088-2 0  9996
2 67715  97.2772 156.5300 0001427  50.0305 357.8262 16.06541265  2246
STARLINK-36715          
1 67716U 26025Z   26046.25002315 -.00990638  34706-3 -13501-2 0  9990
2 67716  97.2770 156.5289 0001486  55.3621 349.5339 16.06333257  2305
STARLINK-36385          
1 67717U 26025AA  26046.25002315 -.01016090  36098-3 -14386-2 0  9991
2 67717  97.2775 156.5247 0001462  50.9509 344.6865 16.05713872  2309
CZ-2F DEB               
1 67718U 26024E   26046.26632940  .00283907  00000+0  57393-2 0  9990
2 67718  50.3141 128.1323 0264752 191.8988 167.5632 15.15613750  1224
CZ-2F DEB               
1 67719U 26024F   26046.30035080  .00221442  00000+0  57058-2 0  9992
2 67719  49.7909 129.0968 0336722 181.7826 178.1939 14.96493421   888
CZ-2F DEB               
1 67720U 26024G   26046.24798958  .00224311  00000+0  59272-2 0  9995
2 67720  49.8306 129.4942 0347617 178.2336 181.9923 14.93802692  1191
2026-027A               
1 67746U 26027A   26046.28345573  .00010581  00000+0  53398-3 0  9997
2 67746  97.4874 175.5449 0009163 278.9751  81.0446 15.17264026   461
2026-027B               
1 67747U 26027B   26046.28325503  .00010762  00000+0  54144-3 0  9990
2 67747  97.4869 175.5448 0009339 281.6451  78.3734 15.17365728   468
2027-027C               
1 67748U 27027C   26046.28296283  .00007025  00000+0  35333-3 0  9991
2 67748  97.4880 175.5458 0009793 284.7341  75.2807 15.17503747   461
2026-027D               
1 67749U 26027D   26045.88709325  .00009787  00000+0  48887-3 0  9997
2 67749  97.4876 175.1546 0009664 290.5408  69.4789 15.17641574   350
