CCSDS_OMM_VERS = 2.0
CREATION_DATE  = 
ORIGINATOR     = 

OBJECT_NAME    = STARLINK-36708
OBJECT_ID      = 2026-025W
CENTER_NAME    = EARTH
REF_FRAME      = TEME
TIME_SYSTEM    = UTC
MEAN_ELEMENT_THEORY = SGP/SGP4

EPOCH          = 2026-02-15T06:00:02.000160
MEAN_MOTION    = 16.06109803
ECCENTRICITY   = .00014872
INCLINATION    = 97.2772
RA_OF_ASC_NODE = 156.5271
ARG_OF_PERICENTER = 54.5832
MEAN_ANOMALY   = 346.9725

EPHEMERIS_TYPE = 0
CLASSIFICATION_TYPE = U
NORAD_CAT_ID   = 67713
ELEMENT_SET_NO = 999
REV_AT_EPOCH   = 230
BSTAR          = -.13838192E-2
MEAN_MOTION_DOT = -.1001461E-1
MEAN_MOTION_DDOT = .35313351E-3

CCSDS_OMM_VERS = 2.0
CREATION_DATE  = 
ORIGINATOR     = 

OBJECT_NAME    = STARLINK-36702
OBJECT_ID      = 2026-025X
CENTER_NAME    = EARTH
REF_FRAME      = TEME
TIME_SYSTEM    = UTC
MEAN_ELEMENT_THEORY = SGP/SGP4

EPOCH          = 2026-02-15T06:00:02.000160
MEAN_MOTION    = 16.05926264
ECCENTRICITY   = .00014619
INCLINATION    = 97.2772
RA_OF_ASC_NODE = 156.5260
ARG_OF_PERICENTER = 50.3498
MEAN_ANOMALY   = 348.5066

EPHEMERIS_TYPE = 0
CLASSIFICATION_TYPE = U
NORAD_CAT_ID   = 67714
ELEMENT_SET_NO = 999
REV_AT_EPOCH   = 203
BSTAR          = -.14184727E-2
MEAN_MOTION_DOT = -.1014946E-1
MEAN_MOTION_DDOT = .36116596E-3

CCSDS_OMM_VERS = 2.0
CREATION_DATE  = 
ORIGINATOR     = 

OBJECT_NAME    = STARLINK-36718
OBJECT_ID      = 2026-025Y
CENTER_NAME    = EARTH
REF_FRAME      = TEME
TIME_SYSTEM    = UTC
MEAN_ELEMENT_THEORY = SGP/SGP4

EPOCH          = 2026-02-15T06:00:02.000160
MEAN_MOTION    = 16.06541265
ECCENTRICITY   = .00014274
INCLINATION    = 97.2772
RA_OF_ASC_NODE = 156.5300
ARG_OF_PERICENTER = 50.0305
MEAN_ANOMALY   = 357.8262

EPHEMERIS_TYPE = 0
CLASSIFICATION_TYPE = U
NORAD_CAT_ID   = 67715
ELEMENT_SET_NO = 999
REV_AT_EPOCH   = 224
BSTAR          = -.13088027E-2
MEAN_MOTION_DOT = -.972865E-2
MEAN_MOTION_DDOT = .33649301E-3

CCSDS_OMM_VERS = 2.0
CREATION_DATE  = 
ORIGINATOR     = 

OBJECT_NAME    = STARLINK-36715
OBJECT_ID      = 2026-025Z
CENTER_NAME    = EARTH
REF_FRAME      = TEME
TIME_SYSTEM    = UTC
MEAN_ELEMENT_THEORY = SGP/SGP4

EPOCH          = 2026-02-15T06:00:02.000160
MEAN_MOTION    = 16.06333257
ECCENTRICITY   = .00014866
INCLINATION    = 97.2770
RA_OF_ASC_NODE = 156.5289
ARG_OF_PERICENTER = 55.3621
MEAN_ANOMALY   = 349.5339

EPHEMERIS_TYPE = 0
CLASSIFICATION_TYPE = U
NORAD_CAT_ID   = 67716
ELEMENT_SET_NO = 999
REV_AT_EPOCH   = 230
BSTAR          = -.13500885E-2
MEAN_MOTION_DOT = -.990638E-2
MEAN_MOTION_DDOT = .3470596E-3

CCSDS_OMM_VERS = 2.0
CREATION_DATE  = 
ORIGINATOR     = 

OBJECT_NAME    = STARLINK-36385
OBJECT_ID      = 2026-025AA
CENTER_NAME    = EARTH
REF_FRAME      = TEME
TIME_SYSTEM    = UTC
MEAN_ELEMENT_THEORY = SGP/SGP4

EPOCH          = 2026-02-15T06:00:02.000160
MEAN_MOTION    = 16.05713872
ECCENTRICITY   = .00014622
INCLINATION    = 97.2775
RA_OF_ASC_NODE = 156.5247
ARG_OF_PERICENTER = 50.9509
MEAN_ANOMALY   = 344.6865

EPHEMERIS_TYPE = 0
CLASSIFICATION_TYPE = U
NORAD_CAT_ID   = 67717
ELEMENT_SET_NO = 999
REV_AT_EPOCH   = 230
BSTAR          = -.14386142E-2
MEAN_MOTION_DOT = -.101609E-1
MEAN_MOTION_DDOT = .36098072E-3

CCSDS_OMM_VERS = 2.0
CREATION_DATE  = 
ORIGINATOR     = 

OBJECT_NAME    = CZ-2F DEB
OBJECT_ID      = 2026-024E
CENTER_NAME    = EARTH
REF_FRAME      = TEME
TIME_SYSTEM    = UTC
MEAN_ELEMENT_THEORY = SGP/SGP4

EPOCH          = 2026-02-15T06:23:30.860160
MEAN_MOTION    = 15.15613750
ECCENTRICITY   = .0264752
INCLINATION    = 50.3141
RA_OF_ASC_NODE = 128.1323
ARG_OF_PERICENTER = 191.8988
MEAN_ANOMALY   = 167.5632

EPHEMERIS_TYPE = 0
CLASSIFICATION_TYPE = U
NORAD_CAT_ID   = 67718
ELEMENT_SET_NO = 999
REV_AT_EPOCH   = 122
BSTAR          = .57393265E-2
MEAN_MOTION_DOT = .283907E-2
MEAN_MOTION_DDOT = 0

CCSDS_OMM_VERS = 2.0
CREATION_DATE  = 
ORIGINATOR     = 

OBJECT_NAME    = CZ-2F DEB
OBJECT_ID      = 2026-024F
CENTER_NAME    = EARTH
REF_FRAME      = TEME
TIME_SYSTEM    = UTC
MEAN_ELEMENT_THEORY = SGP/SGP4

EPOCH          = 2026-02-15T07:12:30.309120
MEAN_MOTION    = 14.96493421
ECCENTRICITY   = .03367226
INCLINATION    = 49.7909
RA_OF_ASC_NODE = 129.0968
ARG_OF_PERICENTER = 181.7826
MEAN_ANOMALY   = 178.1939

EPHEMERIS_TYPE = 0
CLASSIFICATION_TYPE = U
NORAD_CAT_ID   = 67719
ELEMENT_SET_NO = 999
REV_AT_EPOCH   = 88
BSTAR          = .57058002E-2
MEAN_MOTION_DOT = .221442E-2
MEAN_MOTION_DDOT = 0

CCSDS_OMM_VERS = 2.0
CREATION_DATE  = 
ORIGINATOR     = 

OBJECT_NAME    = CZ-2F DEB
OBJECT_ID      = 2026-024G
CENTER_NAME    = EARTH
REF_FRAME      = TEME
TIME_SYSTEM    = UTC
MEAN_ELEMENT_THEORY = SGP/SGP4

EPOCH          = 2026-02-15T05:57:06.299712
MEAN_MOTION    = 14.93802692
ECCENTRICITY   = .03476177
INCLINATION    = 49.8306
RA_OF_ASC_NODE = 129.4942
ARG_OF_PERICENTER = 178.2336
MEAN_ANOMALY   = 181.9923

EPHEMERIS_TYPE = 0
CLASSIFICATION_TYPE = U
NORAD_CAT_ID   = 67720
ELEMENT_SET_NO = 999
REV_AT_EPOCH   = 119
BSTAR          = .59271719E-2
MEAN_MOTION_DOT = .224311E-2
MEAN_MOTION_DDOT = 0

CCSDS_OMM_VERS = 2.0
CREATION_DATE  = 
ORIGINATOR     = 

OBJECT_NAME    = 2026-027A
OBJECT_ID      = 2026-027A
CENTER_NAME    = EARTH
REF_FRAME      = TEME
TIME_SYSTEM    = UTC
MEAN_ELEMENT_THEORY = SGP/SGP4

EPOCH          = 2026-02-15T06:48:10.575072
MEAN_MOTION    = 15.17264026
ECCENTRICITY   = .00091636
INCLINATION    = 97.4874
RA_OF_ASC_NODE = 175.5449
ARG_OF_PERICENTER = 278.9751
MEAN_ANOMALY   = 81.0446

EPHEMERIS_TYPE = 0
CLASSIFICATION_TYPE = U
NORAD_CAT_ID   = 67746
ELEMENT_SET_NO = 999
REV_AT_EPOCH   = 46
BSTAR          = .53398365E-3
MEAN_MOTION_DOT = .10581E-3
MEAN_MOTION_DDOT = 0

CCSDS_OMM_VERS = 2.0
CREATION_DATE  = 
ORIGINATOR     = 

OBJECT_NAME    = 2026-027B
OBJECT_ID      = 2026-027B
CENTER_NAME    = EARTH
REF_FRAME      = TEME
TIME_SYSTEM    = UTC
MEAN_ELEMENT_THEORY = SGP/SGP4

EPOCH          = 2026-02-15T06:47:53.234592
MEAN_MOTION    = 15.17365728
ECCENTRICITY   = .00093395
INCLINATION    = 97.4869
RA_OF_ASC_NODE = 175.5448
ARG_OF_PERICENTER = 281.6451
MEAN_ANOMALY   = 78.3734

EPHEMERIS_TYPE = 0
CLASSIFICATION_TYPE = U
NORAD_CAT_ID   = 67747
ELEMENT_SET_NO = 999
REV_AT_EPOCH   = 46
BSTAR          = .5414402E-3
MEAN_MOTION_DOT = .10762E-3
MEAN_MOTION_DDOT = 0

CCSDS_OMM_VERS = 2.0
CREATION_DATE  = 
ORIGINATOR     = 

OBJECT_NAME    = 2027-027C
OBJECT_ID      = 2027-027C
CENTER_NAME    = EARTH
REF_FRAME      = TEME
TIME_SYSTEM    = UTC
MEAN_ELEMENT_THEORY = SGP/SGP4

EPOCH          = 2026-02-15T06:47:27.988512
MEAN_MOTION    = 15.17503747
ECCENTRICITY   = .00097937
INCLINATION    = 97.4880
RA_OF_ASC_NODE = 175.5458
ARG_OF_PERICENTER = 284.7341
MEAN_ANOMALY   = 75.2807

EPHEMERIS_TYPE = 0
CLASSIFICATION_TYPE = U
NORAD_CAT_ID   = 67748
ELEMENT_SET_NO = 999
REV_AT_EPOCH   = 46
BSTAR          = .35332865E-3
MEAN_MOTION_DOT = .7025E-4
MEAN_MOTION_DDOT = 0

CCSDS_OMM_VERS = 2.0
CREATION_DATE  = 
ORIGINATOR     = 

OBJECT_NAME    = 2026-027D
OBJECT_ID      = 2026-027D
CENTER_NAME    = EARTH
REF_FRAME      = TEME
TIME_SYSTEM    = UTC
MEAN_ELEMENT_THEORY = SGP/SGP4

EPOCH          = 2026-02-14T21:17:24.856800
MEAN_MOTION    = 15.17641574
ECCENTRICITY   = .00096641
INCLINATION    = 97.4876
RA_OF_ASC_NODE = 175.1546
ARG_OF_PERICENTER = 290.5408
MEAN_ANOMALY   = 69.4789

EPHEMERIS_TYPE = 0
CLASSIFICATION_TYPE = U
NORAD_CAT_ID   = 67749
ELEMENT_SET_NO = 999
REV_AT_EPOCH   = 35
BSTAR          = .48886624E-3
MEAN_MOTION_DOT = .9787E-4
MEAN_MOTION_DDOT = 0

